{
    "links": {
        "self": "http://www.neowsapp.com/rest/v1/neo/3837606?api_key=iIulBulltgU6a56xZRHN4H3l9WmuAYTsLGpBGhQ2"
    },
    "id": "3837606",
    "neo_reference_id": "3837606",
    "name": "(2019 AG3)",
    "designation": "2019 AG3",
    "nasa_jpl_url": "http://ssd.jpl.nasa.gov/sbdb.cgi?sstr=3837606",
    "absolute_magnitude_h": 23.3,
    "estimated_diameter": {
        "kilometers": {
            "estimated_diameter_min": 0.058150704,
            "estimated_diameter_max": 0.130028927
        },
        "meters": {
            "estimated_diameter_min": 58.1507039646,
            "estimated_diameter_max": 130.0289270043
        },
        "miles": {
            "estimated_diameter_min": 0.0361331611,
            "estimated_diameter_max": 0.0807962044
        },
        "feet": {
            "estimated_diameter_min": 190.7831555951,
            "estimated_diameter_max": 426.6041048727
        }
    },
    "is_potentially_hazardous_asteroid": false,
    "close_approach_data": [
        {
            "close_approach_date": "2019-01-14",
            "close_approach_date_full": "2019-Jan-14 02:18",
            "epoch_date_close_approach": 1547432280000,
            "relative_velocity": {
                "kilometers_per_second": "14.609831494",
                "kilometers_per_hour": "52595.3933783496",
                "miles_per_hour": "32680.7320688973"
            },
            "miss_distance": {
                "astronomical": "0.0329970946",
                "lunar": "12.8358697994",
                "kilometers": "4936295.068348502",
                "miles": "3067271.5242012476"
            },
            "orbiting_body": "Earth"
        }
    ],
    "orbital_data": {
        "orbit_id": "3",
        "orbit_determination_date": "2019-01-15 07:04:54",
        "first_observation_date": "2018-12-12",
        "last_observation_date": "2019-01-06",
        "data_arc_in_days": 25,
        "observations_used": 34,
        "orbit_uncertainty": "8",
        "minimum_orbit_intersection": ".0314573",
        "jupiter_tisserand_invariant": "4.003",
        "epoch_osculation": "2458470.5",
        "eccentricity": ".5403220008131513",
        "semi_major_axis": "1.706220430018651",
        "inclination": "8.286479706205473",
        "ascending_node_longitude": "306.1597481149023",
        "orbital_period": "814.0500992950115",
        "perihelion_distance": ".784311993442698",
        "perihelion_argument": "231.2878584772725",
        "aphelion_distance": "2.628128866594603",
        "perihelion_time": "2458539.735146822355",
        "mean_anomaly": "329.381917798876",
        "mean_motion": ".4422332241120901",
        "equinox": "J2000",
        "orbit_class": {
            "orbit_class_type": "APO",
            "orbit_class_description": "Near-Earth asteroid orbits which cross the Earth’s orbit similar to that of 1862 Apollo",
            "orbit_class_range": "a (semi-major axis) > 1.0 AU; q (perihelion) < 1.017 AU"
        }
    },
    "is_sentry_object": false
}